{"type": "FeatureCollection", "features": [ {"type": "Feature", "properties": {"norad_id": 43010, "name": "FENGYUN 3D", "group": "weather", "lat": -69.82969519927984, "lon": -33.1754095967284, "alt_km": 833.4377398709103, "timestamp": "2025-12-01T03:58:49.195583+00:00", "meta": {"OBJECT_NAME": "FENGYUN 3D", "OBJECT_ID": "2017-072A", "EPOCH": "2025-11-30T21:33:09.010944", "MEAN_MOTION": 14.19678146, "ECCENTRICITY": 5.31e-05, "INCLINATION": 98.9877, "RA_OF_ASC_NODE": 301.0319, "ARG_OF_PERICENTER": 238.7797, "MEAN_ANOMALY": 121.3327, "EPHEMERIS_TYPE": 0, "CLASSIFICATION_TYPE": "U", "NORAD_CAT_ID": 43010, "ELEMENT_SET_NO": 999, "REV_AT_EPOCH": 41685, "BSTAR": 7.9768e-05, "MEAN_MOTION_DOT": 1.23e-06, "MEAN_MOTION_DDOT": 0, "GROUP": "weather"}, "tle": {"line1": "1 43010U 17072A   25334.89802096  .00000123  00000+0  79768-4 0  9990", "line2": "2 43010  98.9877 301.0319 0000531 238.7797 121.3327 14.19678146416857"}}, "geometry": {"type": "Point", "coordinates": [-33.1754095967284, -69.82969519927984]}}, {"type": "Feature", "properties": {"norad_id": 43013, "name": "NOAA 20 (JPSS-1)", "group": "weather", "lat": 80.83074459976243, "lon": -161.16468452037384, "alt_km": 818.1274167914708, "timestamp": "2025-12-01T03:58:49.195594+00:00", "meta": {"OBJECT_NAME": "NOAA 20 (JPSS-1)", "OBJECT_ID": "2017-073A", "EPOCH": "2025-11-30T19:06:44.747136", "MEAN_MOTION": 14.19520519, "ECCENTRICITY": 0.0002018, "INCLINATION": 98.7581, "RA_OF_ASC_NODE": 271.2247, "ARG_OF_PERICENTER": 104.1471, "MEAN_ANOMALY": 255.9929, "EPHEMERIS_TYPE": 0, "CLASSIFICATION_TYPE": "U", "NORAD_CAT_ID": 43013, "ELEMENT_SET_NO": 999, "REV_AT_EPOCH": 41632, "BSTAR": 6.8046e-05, "MEAN_MOTION_DOT": 9.9e-07, "MEAN_MOTION_DDOT": 0, "GROUP": "weather"}, "tle": {"line1": "1 43013U 17073A   25334.79635124  .00000099  00000+0  68046-4 0  9998", "line2": "2 43013  98.7581 271.2247 0002018 104.1471 255.9929 14.19520519416329"}}, "geometry": {"type": "Point", "coordinates": [-161.16468452037384, 80.83074459976243]}}, {"type": "Feature", "properties": {"norad_id": 43226, "name": "GOES 17", "group": "weather", "lat": -0.29915336384152724, "lon": 40.49676347491172, "alt_km": 35795.86700617987, "timestamp": "2025-12-01T03:58:49.195613+00:00", "meta": {"OBJECT_NAME": "GOES 17", "OBJECT_ID": "2018-022A", "EPOCH": "2025-11-30T18:33:02.008224", "MEAN_MOTION": 1.00270302, "ECCENTRICITY": 0.0003362, "INCLINATION": 0.4258, "RA_OF_ASC_NODE": 89.4021, "ARG_OF_PERICENTER": 180.3693, "MEAN_ANOMALY": 348.8934, "EPHEMERIS_TYPE": 0, "CLASSIFICATION_TYPE": "U", "NORAD_CAT_ID": 43226, "ELEMENT_SET_NO": 999, "REV_AT_EPOCH": 2843, "BSTAR": 0, "MEAN_MOTION_DOT": -1.61e-06, "MEAN_MOTION_DDOT": 0, "GROUP": "weather"}, "tle": {"line1": "1 43226U 18022A   25334.77293991 -.00000161  00000+0  00000+0 0  9991", "line2": "2 43226   0.4258  89.4021 0003362 180.3693 348.8934  1.00270302 28437"}}, "geometry": {"type": "Point", "coordinates": [40.49676347491172, -0.29915336384152724]}}, {"type": "Feature", "properties": {"norad_id": 43491, "name": "FENGYUN 2H", "group": "weather", "lat": 1.9665033559884568, "lon": -150.66433800462917, "alt_km": 35775.867634444956, "timestamp": "2025-12-01T03:58:49.195631+00:00", "meta": {"OBJECT_NAME": "FENGYUN 2H", "OBJECT_ID": "2018-050A", "EPOCH": "2025-11-30T21:04:06.489696", "MEAN_MOTION": 1.00271782, "ECCENTRICITY": 0.0002789, "INCLINATION": 2.5174, "RA_OF_ASC_NODE": 81.4619, "ARG_OF_PERICENTER": 160.2671, "MEAN_ANOMALY": 223.6618, "EPHEMERIS_TYPE": 0, "CLASSIFICATION_TYPE": "U", "NORAD_CAT_ID": 43491, "ELEMENT_SET_NO": 999, "REV_AT_EPOCH": 2745, "BSTAR": 0, "MEAN_MOTION_DOT": -1.08e-06, "MEAN_MOTION_DDOT": 0, "GROUP": "weather"}, "tle": {"line1": "1 43491U 18050A   25334.87785289 -.00000108  00000+0  00000+0 0  9994", "line2": "2 43491   2.5174  81.4619 0002789 160.2671 223.6618  1.00271782 27454"}}, "geometry": {"type": "Point", "coordinates": [-150.66433800462917, 1.9665033559884568]}}, {"type": "Feature", "properties": {"norad_id": 43689, "name": "METOP-C", "group": "weather", "lat": 33.457360908700366, "lon": -141.08451248046111, "alt_km": 818.0277912766669, "timestamp": "2025-12-01T03:58:49.195648+00:00", "meta": {"OBJECT_NAME": "METOP-C", "OBJECT_ID": "2018-087A", "EPOCH": "2025-11-30T18:50:57.808320", "MEAN_MOTION": 14.21504563, "ECCENTRICITY": 0.00018, "INCLINATION": 98.6947, "RA_OF_ASC_NODE": 32.7371, "ARG_OF_PERICENTER": 61.7501, "MEAN_ANOMALY": 298.3858, "EPHEMERIS_TYPE": 0, "CLASSIFICATION_TYPE": "U", "NORAD_CAT_ID": 43689, "ELEMENT_SET_NO": 999, "REV_AT_EPOCH": 36664, "BSTAR": 8.513e-05, "MEAN_MOTION_DOT": 1.43e-06, "MEAN_MOTION_DDOT": 0, "GROUP": "weather"}, "tle": {"line1": "1 43689U 18087A   25334.78539130  .00000143  00000+0  85130-4 0  9995", "line2": "2 43689  98.6947  32.7371 0001800  61.7501 298.3858 14.21504563366646"}}, "geometry": {"type": "Point", "coordinates": [-141.08451248046111, 33.457360908700366]}}, {"type": "Feature", "properties": {"norad_id": 43823, "name": "GEO-KOMPSAT-2A", "group": "weather", "lat": 0.026208801485280722, "lon": -101.75859888875847, "alt_km": 35785.053645589476, "timestamp": "2025-12-01T03:58:49.195665+00:00", "meta": {"OBJECT_NAME": "GEO-KOMPSAT-2A", "OBJECT_ID": "2018-100A", "EPOCH": "2025-11-30T19:35:22.488000", "MEAN_MOTION": 1.00271555, "ECCENTRICITY": 6.07e-05, "INCLINATION": 0.0594, "RA_OF_ASC_NODE": 123.9941, "ARG_OF_PERICENTER": 70.4763, "MEAN_ANOMALY": 297.5894, "EPHEMERIS_TYPE": 0, "CLASSIFICATION_TYPE": "U", "NORAD_CAT_ID": 43823, "ELEMENT_SET_NO": 999, "REV_AT_EPOCH": 2564, "BSTAR": 0, "MEAN_MOTION_DOT": -3.22e-06, "MEAN_MOTION_DDOT": 0, "GROUP": "weather"}, "tle": {"line1": "1 43823U 18100A   25334.81623250 -.00000322  00000+0  00000+0 0  9990", "line2": "2 43823   0.0594 123.9941 0000607  70.4763 297.5894  1.00271555 25646"}}, "geometry": {"type": "Point", "coordinates": [-101.75859888875847, 0.026208801485280722]}}, {"type": "Feature", "properties": {"norad_id": 44387, "name": "METEOR-M2 2", "group": "weather", "lat": 73.4457982814738, "lon": 166.5523740821667, "alt_km": 803.6402359271633, "timestamp": "2025-12-01T03:58:49.195685+00:00", "meta": {"OBJECT_NAME": "METEOR-M2 2", "OBJECT_ID": "2019-038A", "EPOCH": "2025-11-30T20:44:59.323200", "MEAN_MOTION": 14.24283239, "ECCENTRICITY": 7.45e-05, "INCLINATION": 98.8962, "RA_OF_ASC_NODE": 314.4488, "ARG_OF_PERICENTER": 173.4257, "MEAN_ANOMALY": 186.6931, "EPHEMERIS_TYPE": 0, "CLASSIFICATION_TYPE": "U", "NORAD_CAT_ID": 44387, "ELEMENT_SET_NO": 999, "REV_AT_EPOCH": 33306, "BSTAR": 0.00010704, "MEAN_MOTION_DOT": 2.01e-06, "MEAN_MOTION_DDOT": 0, "GROUP": "weather"}, "tle": {"line1": "1 44387U 19038A   25334.86457550  .00000201  00000+0  10704-3 0  9991", "line2": "2 44387  98.8962 314.4488 0000745 173.4257 186.6931 14.24283239333064"}}, "geometry": {"type": "Point", "coordinates": [166.5523740821667, 73.4457982814738]}}, {"type": "Feature", "properties": {"norad_id": 47719, "name": "ARKTIKA-M 1", "group": "weather", "lat": 42.0503184995751, "lon": 112.69802482733685, "alt_km": 21963.23213171221, "timestamp": "2025-12-01T03:58:49.195784+00:00", "meta": {"OBJECT_NAME": "ARKTIKA-M 1", "OBJECT_ID": "2021-016A", "EPOCH": "2025-11-26T03:03:52.773696", "MEAN_MOTION": 2.00612931, "ECCENTRICITY": 0.71946631, "INCLINATION": 63.1753, "RA_OF_ASC_NODE": 86.2841, "ARG_OF_PERICENTER": 269.0636, "MEAN_ANOMALY": 15.738, "EPHEMERIS_TYPE": 0, "CLASSIFICATION_TYPE": "U", "NORAD_CAT_ID": 47719, "ELEMENT_SET_NO": 999, "REV_AT_EPOCH": 3471, "BSTAR": 0, "MEAN_MOTION_DOT": -5e-08, "MEAN_MOTION_DDOT": 0, "GROUP": "weather"}, "tle": {"line1": "1 47719U 21016A   25330.12769414 -.00000005  00000+0  00000+0 0  9999", "line2": "2 47719  63.1753  86.2841 7194663 269.0636  15.7380  2.00612931 34715"}}, "geometry": {"type": "Point", "coordinates": [112.69802482733685, 42.0503184995751]}}, {"type": "Feature", "properties": {"norad_id": 49008, "name": "FENGYUN 3E", "group": "weather", "lat": -65.41199145513528, "lon": 136.16135665049677, "alt_km": 832.9624952503837, "timestamp": "2025-12-01T03:58:49.195860+00:00", "meta": {"OBJECT_NAME": "FENGYUN 3E", "OBJECT_ID": "2021-062A", "EPOCH": "2025-11-30T20:03:21.762720", "MEAN_MOTION": 14.19877406, "ECCENTRICITY": 8.83e-05, "INCLINATION": 98.7476, "RA_OF_ASC_NODE": 335.498, "ARG_OF_PERICENTER": 337.8238, "MEAN_ANOMALY": 22.29, "EPHEMERIS_TYPE": 0, "CLASSIFICATION_TYPE": "U", "NORAD_CAT_ID": 49008, "ELEMENT_SET_NO": 999, "REV_AT_EPOCH": 22843, "BSTAR": 3.973e-05, "MEAN_MOTION_DOT": 4e-07, "MEAN_MOTION_DDOT": 0, "GROUP": "weather"}, "tle": {"line1": "1 49008U 21062A   25334.83566855  .00000040  00000+0  39730-4 0  9994", "line2": "2 49008  98.7476 335.4980 0000883 337.8238  22.2900 14.19877406228430"}}, "geometry": {"type": "Point", "coordinates": [136.16135665049677, -65.41199145513528]}}, {"type": "Feature", "properties": {"norad_id": 51850, "name": "GOES 18", "group": "weather", "lat": -0.009048004834203385, "lon": -7.013027762533673, "alt_km": 35784.26247301238, "timestamp": "2025-12-01T03:58:49.195939+00:00", "meta": {"OBJECT_NAME": "GOES 18", "OBJECT_ID": "2022-021A", "EPOCH": "2025-11-30T18:19:40.787328", "MEAN_MOTION": 1.00272715, "ECCENTRICITY": 7.64e-05, "INCLINATION": 0.009, "RA_OF_ASC_NODE": 118.0375, "ARG_OF_PERICENTER": 173.3817, "MEAN_ANOMALY": 276.4073, "EPHEMERIS_TYPE": 0, "CLASSIFICATION_TYPE": "U", "NORAD_CAT_ID": 51850, "ELEMENT_SET_NO": 999, "REV_AT_EPOCH": 460, "BSTAR": 0, "MEAN_MOTION_DOT": 1.18e-06, "MEAN_MOTION_DDOT": 0, "GROUP": "weather"}, "tle": {"line1": "1 51850U 22021A   25334.76366652  .00000118  00000+0  00000+0 0  9992", "line2": "2 51850   0.0090 118.0375 0000764 173.3817 276.4073  1.00272715  4606"}}, "geometry": {"type": "Point", "coordinates": [-7.013027762533673, -0.009048004834203385]}}]}